{
  "norad_id": 66120,
  "name": "STARLINK-35553",
  "history": [
    {
      "epoch": "2026-03-28T20:24:04.211136",
      "apogee_km": 475.99722069135714,
      "perigee_km": 474.68011973705507,
      "latitude_deg": 42.760711368194386,
      "longitude_deg": 153.60467904014513,
      "semi_major_axis_km": 6853.475670214206,
      "eccentricity": 9.609e-05,
      "inclination_deg": 53.1581,
      "raan_deg": 310.663,
      "arg_perigee_deg": 56.5138,
      "mean_anomaly_deg": 303.5954,
      "mean_motion_rev_day": 15.30158605
    }
  ]
}