{"fetched_at":"2026-03-30T06:02:59Z","count":15439,"tles":[{"name":"STARLINK-35553","line1":"1 66120U 25237G   26087.85004874  .00001569  00000+0  65168-4 0  9993","line2":"2 66120  53.1581 310.6630 0000960  56.5138 303.5954 15.30158605 25541","category":"Starlink"}]}